IRIDIUM 119             
1 42959U 17061E   25123.23665162  .00000107  00000+0  31200-4 0  9995
2 42959  86.4029 196.5443 0002069  96.9589 263.1842 14.34218408396059
IRIDIUM 107             
1 42960U 17061F   25123.18591167 -.00000018  00000+0 -13386-4 0  9992
2 42960  86.4033 196.5842 0002064 108.7909 251.3510 14.34217310396065
IRIDIUM 132             
1 42961U 17061G   25123.19225424  .00000064  00000+0  15963-4 0  9996
2 42961  86.4031 196.5641 0002280  99.8980 260.2473 14.34217958396054
IRIDIUM 136             
1 42962U 17061H   25123.22396672  .00000024  00000+0  16069-5 0  9990
2 42962  86.4031 196.5556 0002064  97.9963 262.1467 14.34217779396077
IRIDIUM 139             
1 42963U 17061J   25123.23031028  .00000037  00000+0  63208-5 0  9994
2 42963  86.4031 196.6080 0002252 102.7138 257.4310 14.34217789396085
IRIDIUM 125             
1 42964U 17061K   25123.21762327  .00000050  00000+0  10738-4 0  9990
2 42964  86.4034 196.6669 0001676 103.8372 256.3010 14.34217939396096
IRIDIUM 135             
1 43070U 17083A   25123.12198582  .00000219  00000+0  71195-4 0  9990
2 43070  86.3946 133.4578 0002528  88.1205 272.0280 14.34219681385370
IRIDIUM 138             
1 43071U 17083B   25123.07758130  .00000009  00000+0 -36855-5 0  9999
2 43071  86.3936 133.1528 0001758  80.2763 279.8631 14.34217700385351
